#aV2008  2  3  0  0   .00000000      96 DD+AD WGS84 FIT  NGA
## 1465       .00000000   900.00000000 54499  .0000000000000
+   31     1  2  3  4  5  6  8  9 10 11 12 13 14 15 16 17 18
+         19 20 21 22 23 24 25 26 27 28 29 30 31 32  0  0  0
+          0  0  0  0  0  0  0  0  0  0  0  0  0  0  0  0  0
+          0  0  0  0  0  0  0  0  0  0  0  0  0  0  0  0  0
+          0  0  0  0  0  0  0  0  0  0  0  0  0  0  0  0  0
++         0  0  0  0  0  0  0  0  0  0  0  0  0  0  0  0  0
++         0  0  0  0  0  0  0  0  0  0  0  0  0  0  0  0  0
++         0  0  0  0  0  0  0  0  0  0  0  0  0  0  0  0  0
++         0  0  0  0  0  0  0  0  0  0  0  0  0  0  0  0  0
++         0  0  0  0  0  0  0  0  0  0  0  0  0  0  0  0  0
%c cc cc ccc ccc cccc cccc cccc cccc ccccc ccccc ccccc ccccc
%c cc cc ccc ccc cccc cccc cccc cccc ccccc ccccc ccccc ccccc
%f  0.0000000  0.000000000  0.00000000000  0.000000000000000
%f  0.0000000  0.000000000  0.00000000000  0.000000000000000
%i    0    0    0    0      0      0      0      0         0
%i    0    0    0    0      0      0      0      0         0
/*      NGA, ST. LOUIS,MO.                                  
/*   EPHEMERIS COMPUTED FROM  3 DAYS OF DATA                
/* CCCCCCCCCCCCCCCCCCCCCCCCCCCCCCCCCCCCCCCCCCCCCCCCCCCCCCCCC
/* CCCCCCCCCCCCCCCCCCCCCCCCCCCCCCCCCCCCCCCCCCCCCCCCCCCCCCCCC
*  2008  2  3 14 45   .00000000                                                 
P  1   6643.272425  14827.088162  21246.085719    183.311408                    
V  1 -26236.201698  -2703.884278  10127.605761       .023419                    
P  2 -12826.555514 -23434.683204  -1336.781931    171.435135                    
V  2   2079.106893  -2684.533730  31102.831248       .030512                    
P  3  17437.250530  11852.526630 -16599.265099    182.100702                    
V  3 -20499.328642   2943.005063 -19381.014949       .054018                    
P  4  -3727.951895 -24195.590849   9736.121935     -2.717117                    
V  4   8444.868550   9982.630880  28139.669107      -.062337                    
P  5 -18571.303351  10492.145894  15474.872149    674.268518                    
V  5   7506.081647 -18956.530808  21638.213784       .154738                    
P  6 -18325.059443  11067.173168 -15603.624388      3.509674                    
V  6 -20085.699770  -3054.091211  21145.949410       .193775                    
P  8   3415.811888 -20252.188574 -16658.902635   -139.548985                    
V  8   9876.320785  18752.972570 -21334.272960      -.014729                    
P  9 -17846.553760  -7779.810566  17530.480041    108.771346                    
V  9  -9718.737293 -21359.533913 -18555.171927       .018299                    
P 10  -8899.803050 -13068.597520 -21417.166603   -233.750709                    
V 10  16130.559079 -21590.605064   6837.663573      -.137222                    
P 11  19777.217681   2912.416337  17480.367068     27.037291                    
V 11  11540.282395  19650.194663 -15866.741856       .000199                    
P 12 -18513.457494   4393.032146  18592.246630   -355.727497                    
V 12  11861.822568 -20265.184160  16757.678412      -.008352                    
P 13  21165.009366  -7109.183015 -14468.999268    238.049960                    
V 13  17888.041974   3274.058141  24766.007752       .021916                    
P 14  -5418.092901  14017.302870  21991.672890   -300.539717                    
V 14 -27460.568455  -2894.216598  -5030.897634       .029989                    
P 15 -24357.148476  -6958.479648  -7947.176110    -74.404975                    
V 15  10271.837637  -2162.039302 -29488.877538      -.022397                    
P 16   4996.339922  16826.684748 -19806.599333    132.673610                    
V 16 -15475.731929  20117.675945  13308.733722       .003226                    
P 17   6055.525818 -14557.897914  21377.010740     43.199697                    
V 17  26991.576685   2683.692538  -5973.848549      -.006671                    
P 18 -17889.153031  18718.647083  -4847.823125   -207.284710                    
V 18   1028.076911  -7212.197490 -30919.414114       .029515                    
P 19  24227.015252   8381.424362  -7183.688921     19.352521                    
V 19  -9467.649467   1393.545850 -29794.030585       .015057                    
P 20  19081.509276  -7244.504183  16858.028848    121.294028                    
V 20 -10069.284194  19300.011061  19610.327088      -.007434                    
P 21 -10434.822093  13111.219999 -20323.829454     72.418605                    
V 21 -12220.876478 -23431.449619  -9366.526844      -.007396                    
P 22  -9796.372202  23298.722028   8256.499351    207.957006                    
V 22  -8526.671946   6515.776431 -29087.950375       .007399                    
P 23  26630.597351    715.844643  -1643.242668    331.323818                    
V 23   1830.876071   2413.866371  31743.974460       .028729                    
P 24 -16086.866236    159.669901 -20912.668012     67.641597                    
V 24  -9846.908728 -25194.960358   7605.892172       .030473                    
P 25  13589.895934  -6467.451473 -21505.226651    507.340357                    
V 25  14558.573817  24153.430064   2068.986050       .045839                    
P 26 -22539.639608  -9811.699098 -11209.265921    173.442464                    
V 26  13327.124768    435.581777 -27827.748166       .103029                    
P 27   9172.310648 -12747.788882 -20721.072964    165.292663                    
V 27  14528.944055  23829.808674  -8142.839856       .026980                    
P 28  11293.512256 -23157.768204   6007.696140    -14.631673                    
V 28   6517.939590  -4241.694505 -30804.988957      -.005562                    
P 29 -23638.257366   5477.201925 -10658.681431    -66.200927                    
V 29 -13449.549875  -3698.212272  27655.355973       .067021                    
P 30 -18415.578096  15847.433485  10281.516281     62.422418                    
V 30   4582.967346 -13145.157120  27682.921358       .015153                    
P 31   5775.065981  24573.116208   8319.768812     -7.830974                    
V 31  -6807.025349  -8116.917358  29531.949349      -.014451                    
P 32  -3735.002486  21647.151737  15497.719682    219.056767                    
V 32 -12931.280500  13711.634546 -22785.229372       .096475                    
EOF
